FlexiLocTestCase,PortNumber,AccNumber,LocNumber,CountryCode,Latitude,Longitude,PostalCode,GeogScheme1,GeogName1,GeogScheme2,GeogName2,OccupancyCode,ConstructionCode,NumberOfBuildings,LocCurrency,LocPerilsCovered,BuildingTIV,OtherTIV,ContentsTIV,BITIV,CondTag,LocPeril,LocDed1Building,LocDedType1Building,LocDed3Contents,LocDedType3Contents,LocDed4BI,LocDedType4BI,LocDed5PD,LocDedType5PD,LocDed6All,LocDedType6All,LocLimit1Building,LocLimitType1Building,LocLimit3Contents,LocLimitType3Contents,LocLimit4BI,LocLimitType4BI,LocLimit5PD,LocLimitType5PD,LocLimit6All,LocLimitType6All,YearBuilt,NumberOfStoreys,Basement,FlexiLoc_ExpectedGrossLossDR100,LocDedType2Other,LocDed2Other,LocLimitType2Other,LocLimit2Other,LocMinDed6All,FlexiLocGrossLossDR25,FlexiLocGrossLossDR50,FlexiLocGrossLossDR75,FlexiLocGrossLossDR100,OEDVersion,FlexiLocUnit
acc1,acc1,acc1,10002082046,GB,52.76698052,-0.895469856,LE13 0HL,0,0,0,0,1050,5000,0,GBP,AA1,1700000,0,0,0,0,AA1,0,0,0,0,0,0,0,0,0,0,0,0,0,0,0,0,0,0,0,0,0,0,0,0,0,0,0,0,0,42500,162000,277500,375000,latest version,acc1
acc1,acc1,acc1,10002082047,GB,52.76697956,-0.89536613,LE13 0HL,0,0,0,0,1050,5000,0,GBP,AA1,1700000,0,0,0,0,AA1,0,0,0,0,0,0,0,0,0,0,0,0,0,0,0,0,0,0,0,0,0,0,0,0,0,0,0,0,0,42500,162000,277500,375000,latest version,acc1
acc2,acc2,acc2,10002082046,GB,52.76698052,-0.895469856,LE13 0HL,0,0,0,0,1050,5000,0,GBP,AA1,1700000,0,0,0,0,AA1,0,0,0,0,0,0,0,0,0,0,0,0,0,0,0,0,0,0,0,0,0,0,0,0,0,0,0,0,0,42500,162000,277500,375000,latest version,acc2
acc2,acc2,acc2,10002082047,GB,52.76697956,-0.89536613,LE13 0HL,0,0,0,0,1050,5000,0,GBP,AA1,1700000,0,0,0,0,AA1,0,0,0,0,0,0,0,0,0,0,0,0,0,0,0,0,0,0,0,0,0,0,0,0,0,0,0,0,0,42500,162000,277500,375000,latest version,acc2
acc3,acc3,acc3,10002082046,GB,52.76698052,-0.895469856,LE13 0HL,0,0,0,0,1050,5000,0,GBP,AA1,1700000,0,0,0,0,AA1,0,0,0,0,0,0,0,0,0,0,0,0,0,0,0,0,0,0,0,0,0,0,0,0,0,0,0,0,0,42500,155172.4138,265086.2069,375000,latest version,acc3
acc3,acc3,acc3,10002082047,GB,52.76697956,-0.89536613,LE13 0HL,0,0,0,0,1050,5000,0,GBP,AA1,1700000,0,0,0,0,AA1,0,0,0,0,0,0,0,0,0,0,0,0,0,0,0,0,0,0,0,0,0,0,0,0,0,0,0,0,0,42500,155172.4138,265086.2069,375000,latest version,acc3
acc4,acc4,acc4,10002082046,GB,52.76698052,-0.895469856,LE13 0HL,0,0,0,0,1050,5000,0,GBP,AA1,1700000,0,0,0,0,AA1,0,0,0,0,0,0,0,0,0,0,0,0,0,0,0,0,0,0,0,0,0,0,0,0,0,0,0,0,0,42500,162000,277500,405000,latest version,acc4
acc4,acc4,acc4,10002082047,GB,52.76697956,-0.89536613,LE13 0HL,0,0,0,0,1050,5000,0,GBP,AA1,1700000,0,0,0,0,AA1,0,0,0,0,0,0,0,0,0,0,0,0,0,0,0,0,0,0,0,0,0,0,0,0,0,0,0,0,0,42500,162000,277500,405000,latest version,acc4
acc5,acc5,acc5,10002082046,GB,52.76698052,-0.895469856,LE13 0HL,0,0,0,0,1050,5000,0,GBP,AA1,1700000,0,0,0,0,AA1,0,0,0,0,0,0,0,0,0,0,0,0,0,0,0,0,0,0,0,0,0,0,0,0,0,0,0,0,0,35500,163000,290500,375000,latest version,acc5
acc5,acc5,acc5,10002082047,GB,52.76697956,-0.89536613,LE13 0HL,0,0,0,0,1050,5000,0,GBP,AA1,1700000,0,0,0,0,AA1,0,0,0,0,0,0,0,0,0,0,0,0,0,0,0,0,0,0,0,0,0,0,0,0,0,0,0,0,0,35500,163000,290500,375000,latest version,acc5
acc6,acc6,acc6,10002082046,GB,52.76698052,-0.895469856,LE13 0HL,0,0,0,0,1050,5000,0,GBP,AA1,1700000,0,0,0,0,AA1,0,0,0,0,0,0,0,0,0,0,0,0,0,0,0,0,0,0,0,0,0,0,0,0,0,0,0,0,0,35500,163000,290500,375000,latest version,acc6
acc6,acc6,acc6,10002082047,GB,52.76697956,-0.89536613,LE13 0HL,0,0,0,0,1050,5000,0,GBP,AA1,1700000,0,0,0,0,AA1,0,0,0,0,0,0,0,0,0,0,0,0,0,0,0,0,0,0,0,0,0,0,0,0,0,0,0,0,0,35500,163000,290500,375000,latest version,acc6
acc7,acc7,acc7,10002082046,GB,52.76698052,-0.895469856,LE13 0HL,0,0,0,0,1050,5000,0,GBP,AA1,1700000,0,0,0,0,AA1,0,0,0,0,0,0,0,0,0,0,0,0,0,0,0,0,0,0,0,0,0,0,0,0,0,0,0,0,0,35500,155172.4138,265086.2069,375000,latest version,acc7
acc7,acc7,acc7,10002082047,GB,52.76697956,-0.89536613,LE13 0HL,0,0,0,0,1050,5000,0,GBP,AA1,1700000,0,0,0,0,AA1,0,0,0,0,0,0,0,0,0,0,0,0,0,0,0,0,0,0,0,0,0,0,0,0,0,0,0,0,0,35500,155172.4138,265086.2069,375000,latest version,acc7
acc8,acc8,acc8,10002082046,GB,52.76698052,-0.895469856,LE13 0HL,0,0,0,0,1050,5000,0,GBP,AA1,1700000,0,0,0,0,AA1,0,0,0,0,0,0,0,0,0,0,0,0,0,0,0,0,0,0,0,0,0,0,0,0,0,0,0,0,0,35500,163000,290500,418000,latest version,acc8
acc8,acc8,acc8,10002082047,GB,52.76697956,-0.89536613,LE13 0HL,0,0,0,0,1050,5000,0,GBP,AA1,1700000,0,0,0,0,AA1,0,0,0,0,0,0,0,0,0,0,0,0,0,0,0,0,0,0,0,0,0,0,0,0,0,0,0,0,0,35500,163000,290500,418000,latest version,acc8
acc9,acc9,acc9,10002082046,GB,52.76698052,-0.895469856,LE13 0HL,0,0,0,0,1050,5000,0,GBP,AA1,1700000,0,0,0,0,AA1,0,0,0,0,0,0,0,0,0,0,0,0,0,0,0,0,0,0,0,0,0,0,0,0,0,0,0,0,0,42500,170000,297500,375000,latest version,acc9
acc9,acc9,acc9,10002082047,GB,52.76697956,-0.89536613,LE13 0HL,0,0,0,0,1050,5000,0,GBP,AA1,1700000,0,0,0,0,AA1,0,0,0,0,0,0,0,0,0,0,0,0,0,0,0,0,0,0,0,0,0,0,0,0,0,0,0,0,0,42500,170000,297500,375000,latest version,acc9
acc10,acc10,acc10,10002082046,GB,52.76698052,-0.895469856,LE13 0HL,0,0,0,0,1050,5000,0,GBP,AA1,1700000,0,0,0,0,AA1,0,0,0,0,0,0,0,0,0,0,0,0,0,0,0,0,0,0,0,0,0,0,0,0,0,0,0,0,0,42500,170000,297500,375000,latest version,acc10
acc10,acc10,acc10,10002082047,GB,52.76697956,-0.89536613,LE13 0HL,0,0,0,0,1050,5000,0,GBP,AA1,1700000,0,0,0,0,AA1,0,0,0,0,0,0,0,0,0,0,0,0,0,0,0,0,0,0,0,0,0,0,0,0,0,0,0,0,0,42500,170000,297500,375000,latest version,acc10
acc11,acc11,acc11,10002082046,GB,52.76698052,-0.895469856,LE13 0HL,0,0,0,0,1050,5000,0,GBP,AA1,1700000,0,0,0,0,AA1,0,0,0,0,0,0,0,0,0,0,0,0,0,0,0,0,0,0,0,0,0,0,0,0,0,0,0,0,0,42500,155172.4138,265086.2069,375000,latest version,acc11
acc11,acc11,acc11,10002082047,GB,52.76697956,-0.89536613,LE13 0HL,0,0,0,0,1050,5000,0,GBP,AA1,1700000,0,0,0,0,AA1,0,0,0,0,0,0,0,0,0,0,0,0,0,0,0,0,0,0,0,0,0,0,0,0,0,0,0,0,0,42500,155172.4138,265086.2069,375000,latest version,acc11
acc12,acc12,acc12,10002082046,GB,52.76698052,-0.895469856,LE13 0HL,0,0,0,0,1050,5000,0,GBP,AA1,1700000,0,0,0,0,AA1,0,0,0,0,0,0,0,0,0,0,0,0,0,0,0,0,0,0,0,0,0,0,0,0,0,0,0,0,0,42500,170000,297500,425000,latest version,acc12
acc12,acc12,acc12,10002082047,GB,52.76697956,-0.89536613,LE13 0HL,0,0,0,0,1050,5000,0,GBP,AA1,1700000,0,0,0,0,AA1,0,0,0,0,0,0,0,0,0,0,0,0,0,0,0,0,0,0,0,0,0,0,0,0,0,0,0,0,0,42500,170000,297500,425000,latest version,acc12
acc13,acc13,acc13,10002082046,GB,52.76698052,-0.895469856,LE13 0HL,0,0,0,0,1050,5000,0,GBP,AA1,1700000,0,0,0,0,AA1,0,0,0,0,0,0,0,0,0,0,0,0,0,0,0,0,0,0,0,0,0,0,0,0,0,0,0,0,0,42500,162000,276750,375000,latest version,acc13
acc13,acc13,acc13,10002082047,GB,52.76697956,-0.89536613,LE13 0HL,0,0,0,0,1050,5000,0,GBP,AA1,1700000,0,0,0,0,AA1,0,0,0,0,0,0,0,0,0,0,0,0,0,0,0,0,0,0,0,0,0,0,0,0,0,0,0,0,0,42500,162000,276750,375000,latest version,acc13
acc14,acc14,acc14,10002082046,GB,52.76698052,-0.895469856,LE13 0HL,0,0,0,0,1050,5000,0,GBP,AA1,1700000,0,0,0,0,AA1,0,0,0,0,0,0,0,0,0,0,0,0,0,0,0,0,0,0,0,0,0,0,0,0,0,0,0,0,0,42500,162000,276750,375000,latest version,acc14
acc14,acc14,acc14,10002082047,GB,52.76697956,-0.89536613,LE13 0HL,0,0,0,0,1050,5000,0,GBP,AA1,1700000,0,0,0,0,AA1,0,0,0,0,0,0,0,0,0,0,0,0,0,0,0,0,0,0,0,0,0,0,0,0,0,0,0,0,0,42500,162000,276750,375000,latest version,acc14
acc15,acc15,acc15,10002082046,GB,52.76698052,-0.895469856,LE13 0HL,0,0,0,0,1050,5000,0,GBP,AA1,1700000,0,0,0,0,AA1,0,0,0,0,0,0,0,0,0,0,0,0,0,0,0,0,0,0,0,0,0,0,0,0,0,0,0,0,0,42500,155172.4138,265086.2069,375000,latest version,acc15
acc15,acc15,acc15,10002082047,GB,52.76697956,-0.89536613,LE13 0HL,0,0,0,0,1050,5000,0,GBP,AA1,1700000,0,0,0,0,AA1,0,0,0,0,0,0,0,0,0,0,0,0,0,0,0,0,0,0,0,0,0,0,0,0,0,0,0,0,0,42500,155172.4138,265086.2069,375000,latest version,acc15
acc16,acc16,acc16,10002082046,GB,52.76698052,-0.895469856,LE13 0HL,0,0,0,0,1050,5000,0,GBP,AA1,1700000,0,0,0,0,AA1,0,0,0,0,0,0,0,0,0,0,0,0,0,0,0,0,0,0,0,0,0,0,0,0,0,0,0,0,0,42500,162000,276750,391500,latest version,acc16
acc16,acc16,acc16,10002082047,GB,52.76697956,-0.89536613,LE13 0HL,0,0,0,0,1050,5000,0,GBP,AA1,1700000,0,0,0,0,AA1,0,0,0,0,0,0,0,0,0,0,0,0,0,0,0,0,0,0,0,0,0,0,0,0,0,0,0,0,0,42500,162000,276750,391500,latest version,acc16
acc17,acc17,acc17,10002082046,GB,52.76698052,-0.895469856,LE13 0HL,0,0,0,0,1050,5000,0,GBP,AA1,1700000,0,0,0,0,AA1,0,0,0,0,0,0,0,0,0,0,0,0,0,0,0,0,0,0,0,0,0,0,0,0,0,0,0,0,0,35500,163000,290500,375000,latest version,acc17
acc17,acc17,acc17,10002082047,GB,52.76697956,-0.89536613,LE13 0HL,0,0,0,0,1050,5000,0,GBP,AA1,1700000,0,0,0,0,AA1,0,0,0,0,0,0,0,0,0,0,0,0,0,0,0,0,0,0,0,0,0,0,0,0,0,0,0,0,0,35500,163000,290500,375000,latest version,acc17
acc18,acc18,acc18,10002082046,GB,52.76698052,-0.895469856,LE13 0HL,0,0,0,0,1050,5000,0,GBP,AA1,1700000,0,0,0,0,AA1,0,0,0,0,0,0,0,0,0,0,0,0,0,0,0,0,0,0,0,0,0,0,0,0,0,0,0,0,0,35500,163000,290500,375000,latest version,acc18
acc18,acc18,acc18,10002082047,GB,52.76697956,-0.89536613,LE13 0HL,0,0,0,0,1050,5000,0,GBP,AA1,1700000,0,0,0,0,AA1,0,0,0,0,0,0,0,0,0,0,0,0,0,0,0,0,0,0,0,0,0,0,0,0,0,0,0,0,0,35500,163000,290500,375000,latest version,acc18
acc19,acc19,acc19,10002082046,GB,52.76698052,-0.895469856,LE13 0HL,0,0,0,0,1050,5000,0,GBP,AA1,1700000,0,0,0,0,AA1,0,0,0,0,0,0,0,0,0,0,0,0,0,0,0,0,0,0,0,0,0,0,0,0,0,0,0,0,0,35500,155172.4138,265086.2069,375000,latest version,acc19
acc19,acc19,acc19,10002082047,GB,52.76697956,-0.89536613,LE13 0HL,0,0,0,0,1050,5000,0,GBP,AA1,1700000,0,0,0,0,AA1,0,0,0,0,0,0,0,0,0,0,0,0,0,0,0,0,0,0,0,0,0,0,0,0,0,0,0,0,0,35500,155172.4138,265086.2069,375000,latest version,acc19
acc20,acc20,acc20,10002082046,GB,52.76698052,-0.895469856,LE13 0HL,0,0,0,0,1050,5000,0,GBP,AA1,1700000,0,0,0,0,AA1,0,0,0,0,0,0,0,0,0,0,0,0,0,0,0,0,0,0,0,0,0,0,0,0,0,0,0,0,0,35500,163000,290500,418000,latest version,acc20
acc20,acc20,acc20,10002082047,GB,52.76697956,-0.89536613,LE13 0HL,0,0,0,0,1050,5000,0,GBP,AA1,1700000,0,0,0,0,AA1,0,0,0,0,0,0,0,0,0,0,0,0,0,0,0,0,0,0,0,0,0,0,0,0,0,0,0,0,0,35500,163000,290500,418000,latest version,acc20
acc21,acc21,acc21,10002082046,GB,52.76698052,-0.895469856,LE13 0HL,0,0,0,0,1050,5000,0,GBP,AA1,1700000,0,0,0,0,AA1,0,0,0,0,0,0,0,0,0,0,0,0,0,0,0,0,0,0,0,0,0,0,0,0,0,0,0,0,0,42500,170000,297500,375000,latest version,acc21
acc21,acc21,acc21,10002082047,GB,52.76697956,-0.89536613,LE13 0HL,0,0,0,0,1050,5000,0,GBP,AA1,1700000,0,0,0,0,AA1,0,0,0,0,0,0,0,0,0,0,0,0,0,0,0,0,0,0,0,0,0,0,0,0,0,0,0,0,0,42500,170000,297500,375000,latest version,acc21
acc22,acc22,acc22,10002082046,GB,52.76698052,-0.895469856,LE13 0HL,0,0,0,0,1050,5000,0,GBP,AA1,1700000,0,0,0,0,AA1,0,0,0,0,0,0,0,0,0,0,0,0,0,0,0,0,0,0,0,0,0,0,0,0,0,0,0,0,0,42500,170000,297500,375000,latest version,acc22
acc22,acc22,acc22,10002082047,GB,52.76697956,-0.89536613,LE13 0HL,0,0,0,0,1050,5000,0,GBP,AA1,1700000,0,0,0,0,AA1,0,0,0,0,0,0,0,0,0,0,0,0,0,0,0,0,0,0,0,0,0,0,0,0,0,0,0,0,0,42500,170000,297500,375000,latest version,acc22
acc23,acc23,acc23,10002082046,GB,52.76698052,-0.895469856,LE13 0HL,0,0,0,0,1050,5000,0,GBP,AA1,1700000,0,0,0,0,AA1,0,0,0,0,0,0,0,0,0,0,0,0,0,0,0,0,0,0,0,0,0,0,0,0,0,0,0,0,0,42500,155172.4138,265086.2069,375000,latest version,acc23
acc23,acc23,acc23,10002082047,GB,52.76697956,-0.89536613,LE13 0HL,0,0,0,0,1050,5000,0,GBP,AA1,1700000,0,0,0,0,AA1,0,0,0,0,0,0,0,0,0,0,0,0,0,0,0,0,0,0,0,0,0,0,0,0,0,0,0,0,0,42500,155172.4138,265086.2069,375000,latest version,acc23
acc24,acc24,acc24,10002082046,GB,52.76698052,-0.895469856,LE13 0HL,0,0,0,0,1050,5000,0,GBP,AA1,1700000,0,0,0,0,AA1,0,0,0,0,0,0,0,0,0,0,0,0,0,0,0,0,0,0,0,0,0,0,0,0,0,0,0,0,0,42500,170000,297500,425000,latest version,acc24
acc24,acc24,acc24,10002082047,GB,52.76697956,-0.89536613,LE13 0HL,0,0,0,0,1050,5000,0,GBP,AA1,1700000,0,0,0,0,AA1,0,0,0,0,0,0,0,0,0,0,0,0,0,0,0,0,0,0,0,0,0,0,0,0,0,0,0,0,0,42500,170000,297500,425000,latest version,acc24
acc25,acc25,acc25,10002082046,GB,52.76698052,-0.895469856,LE13 0HL,0,0,0,0,1050,5000,0,GBP,AA1,1700000,0,0,0,0,AA1,0,0,0,0,0,0,0,0,0,0,0,0,0,0,0,0,0,0,0,0,0,0,0,0,0,0,0,0,0,47250,162000,277500,375000,latest version,acc25
acc25,acc25,acc25,10002082047,GB,52.76697956,-0.89536613,LE13 0HL,0,0,0,0,1050,5000,0,GBP,AA1,1700000,0,0,0,0,AA1,0,0,0,0,0,0,0,0,0,0,0,0,0,0,0,0,0,0,0,0,0,0,0,0,0,0,0,0,0,47250,162000,277500,375000,latest version,acc25
acc26,acc26,acc26,10002082046,GB,52.76698052,-0.895469856,LE13 0HL,0,0,0,0,1050,5000,0,GBP,AA1,1700000,0,0,0,0,AA1,0,0,0,0,0,0,0,0,0,0,0,0,0,0,0,0,0,0,0,0,0,0,0,0,0,0,0,0,0,47250,162000,277500,375000,latest version,acc26
acc26,acc26,acc26,10002082047,GB,52.76697956,-0.89536613,LE13 0HL,0,0,0,0,1050,5000,0,GBP,AA1,1700000,0,0,0,0,AA1,0,0,0,0,0,0,0,0,0,0,0,0,0,0,0,0,0,0,0,0,0,0,0,0,0,0,0,0,0,47250,162000,277500,375000,latest version,acc26
acc27,acc27,acc27,10002082046,GB,52.76698052,-0.895469856,LE13 0HL,0,0,0,0,1050,5000,0,GBP,AA1,1700000,0,0,0,0,AA1,0,0,0,0,0,0,0,0,0,0,0,0,0,0,0,0,0,0,0,0,0,0,0,0,0,0,0,0,0,45258.62069,155172.4138,265086.2069,375000,latest version,acc27
acc27,acc27,acc27,10002082047,GB,52.76697956,-0.89536613,LE13 0HL,0,0,0,0,1050,5000,0,GBP,AA1,1700000,0,0,0,0,AA1,0,0,0,0,0,0,0,0,0,0,0,0,0,0,0,0,0,0,0,0,0,0,0,0,0,0,0,0,0,45258.62069,155172.4138,265086.2069,375000,latest version,acc27
acc28,acc28,acc28,10002082046,GB,52.76698052,-0.895469856,LE13 0HL,0,0,0,0,1050,5000,0,GBP,AA1,1700000,0,0,0,0,AA1,0,0,0,0,0,0,0,0,0,0,0,0,0,0,0,0,0,0,0,0,0,0,0,0,0,0,0,0,0,47250,162000,277500,405000,latest version,acc28
acc28,acc28,acc28,10002082047,GB,52.76697956,-0.89536613,LE13 0HL,0,0,0,0,1050,5000,0,GBP,AA1,1700000,0,0,0,0,AA1,0,0,0,0,0,0,0,0,0,0,0,0,0,0,0,0,0,0,0,0,0,0,0,0,0,0,0,0,0,47250,162000,277500,405000,latest version,acc28
acc29,acc29,acc29,10002082046,GB,52.76698052,-0.895469856,LE13 0HL,0,0,0,0,1050,5000,0,GBP,AA1,1700000,0,0,0,0,AA1,0,0,0,0,0,0,0,0,0,0,0,0,0,0,0,0,0,0,0,0,0,0,0,0,0,0,0,0,0,35500,163000,290500,375000,latest version,acc29
acc29,acc29,acc29,10002082047,GB,52.76697956,-0.89536613,LE13 0HL,0,0,0,0,1050,5000,0,GBP,AA1,1700000,0,0,0,0,AA1,0,0,0,0,0,0,0,0,0,0,0,0,0,0,0,0,0,0,0,0,0,0,0,0,0,0,0,0,0,35500,163000,290500,375000,latest version,acc29
acc30,acc30,acc30,10002082046,GB,52.76698052,-0.895469856,LE13 0HL,0,0,0,0,1050,5000,0,GBP,AA1,1700000,0,0,0,0,AA1,0,0,0,0,0,0,0,0,0,0,0,0,0,0,0,0,0,0,0,0,0,0,0,0,0,0,0,0,0,35500,163000,290500,375000,latest version,acc30
acc30,acc30,acc30,10002082047,GB,52.76697956,-0.89536613,LE13 0HL,0,0,0,0,1050,5000,0,GBP,AA1,1700000,0,0,0,0,AA1,0,0,0,0,0,0,0,0,0,0,0,0,0,0,0,0,0,0,0,0,0,0,0,0,0,0,0,0,0,35500,163000,290500,375000,latest version,acc30
acc31,acc31,acc31,10002082046,GB,52.76698052,-0.895469856,LE13 0HL,0,0,0,0,1050,5000,0,GBP,AA1,1700000,0,0,0,0,AA1,0,0,0,0,0,0,0,0,0,0,0,0,0,0,0,0,0,0,0,0,0,0,0,0,0,0,0,0,0,35500,155172.4138,265086.2069,375000,latest version,acc31
acc31,acc31,acc31,10002082047,GB,52.76697956,-0.89536613,LE13 0HL,0,0,0,0,1050,5000,0,GBP,AA1,1700000,0,0,0,0,AA1,0,0,0,0,0,0,0,0,0,0,0,0,0,0,0,0,0,0,0,0,0,0,0,0,0,0,0,0,0,35500,155172.4138,265086.2069,375000,latest version,acc31
acc32,acc32,acc32,10002082046,GB,52.76698052,-0.895469856,LE13 0HL,0,0,0,0,1050,5000,0,GBP,AA1,1700000,0,0,0,0,AA1,0,0,0,0,0,0,0,0,0,0,0,0,0,0,0,0,0,0,0,0,0,0,0,0,0,0,0,0,0,35500,163000,290500,418000,latest version,acc32
acc32,acc32,acc32,10002082047,GB,52.76697956,-0.89536613,LE13 0HL,0,0,0,0,1050,5000,0,GBP,AA1,1700000,0,0,0,0,AA1,0,0,0,0,0,0,0,0,0,0,0,0,0,0,0,0,0,0,0,0,0,0,0,0,0,0,0,0,0,35500,163000,290500,418000,latest version,acc32
acc33,acc33,acc33,10002082046,GB,52.76698052,-0.895469856,LE13 0HL,0,0,0,0,1050,5000,0,GBP,AA1,1700000,0,0,0,0,AA1,0,0,0,0,0,0,0,0,0,0,0,0,0,0,0,0,0,0,0,0,0,0,0,0,0,0,0,0,0,47500,175000,302500,375000,latest version,acc33
acc33,acc33,acc33,10002082047,GB,52.76697956,-0.89536613,LE13 0HL,0,0,0,0,1050,5000,0,GBP,AA1,1700000,0,0,0,0,AA1,0,0,0,0,0,0,0,0,0,0,0,0,0,0,0,0,0,0,0,0,0,0,0,0,0,0,0,0,0,47500,175000,302500,375000,latest version,acc33
acc34,acc34,acc34,10002082046,GB,52.76698052,-0.895469856,LE13 0HL,0,0,0,0,1050,5000,0,GBP,AA1,1700000,0,0,0,0,AA1,0,0,0,0,0,0,0,0,0,0,0,0,0,0,0,0,0,0,0,0,0,0,0,0,0,0,0,0,0,47500,175000,302500,375000,latest version,acc34
acc34,acc34,acc34,10002082047,GB,52.76697956,-0.89536613,LE13 0HL,0,0,0,0,1050,5000,0,GBP,AA1,1700000,0,0,0,0,AA1,0,0,0,0,0,0,0,0,0,0,0,0,0,0,0,0,0,0,0,0,0,0,0,0,0,0,0,0,0,47500,175000,302500,375000,latest version,acc34
acc35,acc35,acc35,10002082046,GB,52.76698052,-0.895469856,LE13 0HL,0,0,0,0,1050,5000,0,GBP,AA1,1700000,0,0,0,0,AA1,0,0,0,0,0,0,0,0,0,0,0,0,0,0,0,0,0,0,0,0,0,0,0,0,0,0,0,0,0,45258.62069,155172.4138,265086.2069,375000,latest version,acc35
acc35,acc35,acc35,10002082047,GB,52.76697956,-0.89536613,LE13 0HL,0,0,0,0,1050,5000,0,GBP,AA1,1700000,0,0,0,0,AA1,0,0,0,0,0,0,0,0,0,0,0,0,0,0,0,0,0,0,0,0,0,0,0,0,0,0,0,0,0,45258.62069,155172.4138,265086.2069,375000,latest version,acc35
acc36,acc36,acc36,10002082046,GB,52.76698052,-0.895469856,LE13 0HL,0,0,0,0,1050,5000,0,GBP,AA1,1700000,0,0,0,0,AA1,0,0,0,0,0,0,0,0,0,0,0,0,0,0,0,0,0,0,0,0,0,0,0,0,0,0,0,0,0,47500,175000,302500,430000,latest version,acc36
acc36,acc36,acc36,10002082047,GB,52.76697956,-0.89536613,LE13 0HL,0,0,0,0,1050,5000,0,GBP,AA1,1700000,0,0,0,0,AA1,0,0,0,0,0,0,0,0,0,0,0,0,0,0,0,0,0,0,0,0,0,0,0,0,0,0,0,0,0,47500,175000,302500,430000,latest version,acc36
acc37,acc37,acc37,10002082046,GB,52.76698052,-0.895469856,LE13 0HL,0,0,0,0,1050,5000,0,GBP,AA1,1700000,0,0,0,0,AA1,0,0,0,0,0,0,0,0,0,0,0,0,0,0,0,0,0,0,0,0,0,0,0,0,0,0,0,0,0,47250,162000,276750,375000,latest version,acc37
acc37,acc37,acc37,10002082047,GB,52.76697956,-0.89536613,LE13 0HL,0,0,0,0,1050,5000,0,GBP,AA1,1700000,0,0,0,0,AA1,0,0,0,0,0,0,0,0,0,0,0,0,0,0,0,0,0,0,0,0,0,0,0,0,0,0,0,0,0,47250,162000,276750,375000,latest version,acc37
acc38,acc38,acc38,10002082046,GB,52.76698052,-0.895469856,LE13 0HL,0,0,0,0,1050,5000,0,GBP,AA1,1700000,0,0,0,0,AA1,0,0,0,0,0,0,0,0,0,0,0,0,0,0,0,0,0,0,0,0,0,0,0,0,0,0,0,0,0,47250,162000,276750,375000,latest version,acc38
acc38,acc38,acc38,10002082047,GB,52.76697956,-0.89536613,LE13 0HL,0,0,0,0,1050,5000,0,GBP,AA1,1700000,0,0,0,0,AA1,0,0,0,0,0,0,0,0,0,0,0,0,0,0,0,0,0,0,0,0,0,0,0,0,0,0,0,0,0,47250,162000,276750,375000,latest version,acc38
acc39,acc39,acc39,10002082046,GB,52.76698052,-0.895469856,LE13 0HL,0,0,0,0,1050,5000,0,GBP,AA1,1700000,0,0,0,0,AA1,0,0,0,0,0,0,0,0,0,0,0,0,0,0,0,0,0,0,0,0,0,0,0,0,0,0,0,0,0,45258.62069,155172.4138,265086.2069,375000,latest version,acc39
acc39,acc39,acc39,10002082047,GB,52.76697956,-0.89536613,LE13 0HL,0,0,0,0,1050,5000,0,GBP,AA1,1700000,0,0,0,0,AA1,0,0,0,0,0,0,0,0,0,0,0,0,0,0,0,0,0,0,0,0,0,0,0,0,0,0,0,0,0,45258.62069,155172.4138,265086.2069,375000,latest version,acc39
acc40,acc40,acc40,10002082046,GB,52.76698052,-0.895469856,LE13 0HL,0,0,0,0,1050,5000,0,GBP,AA1,1700000,0,0,0,0,AA1,0,0,0,0,0,0,0,0,0,0,0,0,0,0,0,0,0,0,0,0,0,0,0,0,0,0,0,0,0,47250,162000,276750,391500,latest version,acc40
acc40,acc40,acc40,10002082047,GB,52.76697956,-0.89536613,LE13 0HL,0,0,0,0,1050,5000,0,GBP,AA1,1700000,0,0,0,0,AA1,0,0,0,0,0,0,0,0,0,0,0,0,0,0,0,0,0,0,0,0,0,0,0,0,0,0,0,0,0,47250,162000,276750,391500,latest version,acc40
acc41,acc41,acc41,10002082046,GB,52.76698052,-0.895469856,LE13 0HL,0,0,0,0,1050,5000,0,GBP,AA1,1700000,0,0,0,0,AA1,0,0,0,0,0,0,0,0,0,0,0,0,0,0,0,0,0,0,0,0,0,0,0,0,0,0,0,0,0,35500,163000,290500,375000,latest version,acc41
acc41,acc41,acc41,10002082047,GB,52.76697956,-0.89536613,LE13 0HL,0,0,0,0,1050,5000,0,GBP,AA1,1700000,0,0,0,0,AA1,0,0,0,0,0,0,0,0,0,0,0,0,0,0,0,0,0,0,0,0,0,0,0,0,0,0,0,0,0,35500,163000,290500,375000,latest version,acc41
acc42,acc42,acc42,10002082046,GB,52.76698052,-0.895469856,LE13 0HL,0,0,0,0,1050,5000,0,GBP,AA1,1700000,0,0,0,0,AA1,0,0,0,0,0,0,0,0,0,0,0,0,0,0,0,0,0,0,0,0,0,0,0,0,0,0,0,0,0,35500,163000,290500,375000,latest version,acc42
acc42,acc42,acc42,10002082047,GB,52.76697956,-0.89536613,LE13 0HL,0,0,0,0,1050,5000,0,GBP,AA1,1700000,0,0,0,0,AA1,0,0,0,0,0,0,0,0,0,0,0,0,0,0,0,0,0,0,0,0,0,0,0,0,0,0,0,0,0,35500,163000,290500,375000,latest version,acc42
acc43,acc43,acc43,10002082046,GB,52.76698052,-0.895469856,LE13 0HL,0,0,0,0,1050,5000,0,GBP,AA1,1700000,0,0,0,0,AA1,0,0,0,0,0,0,0,0,0,0,0,0,0,0,0,0,0,0,0,0,0,0,0,0,0,0,0,0,0,35500,155172.4138,265086.2069,375000,latest version,acc43
acc43,acc43,acc43,10002082047,GB,52.76697956,-0.89536613,LE13 0HL,0,0,0,0,1050,5000,0,GBP,AA1,1700000,0,0,0,0,AA1,0,0,0,0,0,0,0,0,0,0,0,0,0,0,0,0,0,0,0,0,0,0,0,0,0,0,0,0,0,35500,155172.4138,265086.2069,375000,latest version,acc43
acc44,acc44,acc44,10002082046,GB,52.76698052,-0.895469856,LE13 0HL,0,0,0,0,1050,5000,0,GBP,AA1,1700000,0,0,0,0,AA1,0,0,0,0,0,0,0,0,0,0,0,0,0,0,0,0,0,0,0,0,0,0,0,0,0,0,0,0,0,35500,163000,290500,418000,latest version,acc44
acc44,acc44,acc44,10002082047,GB,52.76697956,-0.89536613,LE13 0HL,0,0,0,0,1050,5000,0,GBP,AA1,1700000,0,0,0,0,AA1,0,0,0,0,0,0,0,0,0,0,0,0,0,0,0,0,0,0,0,0,0,0,0,0,0,0,0,0,0,35500,163000,290500,418000,latest version,acc44
acc45,acc45,acc45,10002082046,GB,52.76698052,-0.895469856,LE13 0HL,0,0,0,0,1050,5000,0,GBP,AA1,1700000,0,0,0,0,AA1,0,0,0,0,0,0,0,0,0,0,0,0,0,0,0,0,0,0,0,0,0,0,0,0,0,0,0,0,0,47500,175000,302500,375000,latest version,acc45
acc45,acc45,acc45,10002082047,GB,52.76697956,-0.89536613,LE13 0HL,0,0,0,0,1050,5000,0,GBP,AA1,1700000,0,0,0,0,AA1,0,0,0,0,0,0,0,0,0,0,0,0,0,0,0,0,0,0,0,0,0,0,0,0,0,0,0,0,0,47500,175000,302500,375000,latest version,acc45
acc46,acc46,acc46,10002082046,GB,52.76698052,-0.895469856,LE13 0HL,0,0,0,0,1050,5000,0,GBP,AA1,1700000,0,0,0,0,AA1,0,0,0,0,0,0,0,0,0,0,0,0,0,0,0,0,0,0,0,0,0,0,0,0,0,0,0,0,0,47500,175000,302500,375000,latest version,acc46
acc46,acc46,acc46,10002082047,GB,52.76697956,-0.89536613,LE13 0HL,0,0,0,0,1050,5000,0,GBP,AA1,1700000,0,0,0,0,AA1,0,0,0,0,0,0,0,0,0,0,0,0,0,0,0,0,0,0,0,0,0,0,0,0,0,0,0,0,0,47500,175000,302500,375000,latest version,acc46
acc47,acc47,acc47,10002082046,GB,52.76698052,-0.895469856,LE13 0HL,0,0,0,0,1050,5000,0,GBP,AA1,1700000,0,0,0,0,AA1,0,0,0,0,0,0,0,0,0,0,0,0,0,0,0,0,0,0,0,0,0,0,0,0,0,0,0,0,0,45258.62069,155172.4138,265086.2069,375000,latest version,acc47
acc47,acc47,acc47,10002082047,GB,52.76697956,-0.89536613,LE13 0HL,0,0,0,0,1050,5000,0,GBP,AA1,1700000,0,0,0,0,AA1,0,0,0,0,0,0,0,0,0,0,0,0,0,0,0,0,0,0,0,0,0,0,0,0,0,0,0,0,0,45258.62069,155172.4138,265086.2069,375000,latest version,acc47
acc48,acc48,acc48,10002082046,GB,52.76698052,-0.895469856,LE13 0HL,0,0,0,0,1050,5000,0,GBP,AA1,1700000,0,0,0,0,AA1,0,0,0,0,0,0,0,0,0,0,0,0,0,0,0,0,0,0,0,0,0,0,0,0,0,0,0,0,0,47500,175000,302500,430000,latest version,acc48
acc48,acc48,acc48,10002082047,GB,52.76697956,-0.89536613,LE13 0HL,0,0,0,0,1050,5000,0,GBP,AA1,1700000,0,0,0,0,AA1,0,0,0,0,0,0,0,0,0,0,0,0,0,0,0,0,0,0,0,0,0,0,0,0,0,0,0,0,0,47500,175000,302500,430000,latest version,acc48
acc49,acc49,acc49,10002082046,GB,52.76698052,-0.895469856,LE13 0HL,0,0,0,0,1050,5000,0,GBP,AA1,1700000,0,0,0,0,AA1,0,0,0,0,0,0,0,0,5000,0,0,0,0,0,0,0,0,0,0,0,0,0,0,0,0,0,0,0,0,"45,900","160,650","281,000","375,000",latest version,acc49
acc49,acc49,acc49,10002082047,GB,52.76697956,-0.89536613,LE13 0HL,0,0,0,0,1050,5000,0,GBP,AA1,1700000,0,0,0,0,AA1,0,0,0,0,0,0,0,0,5000,0,0,0,0,0,0,0,0,0,0,0,0,0,0,0,0,0,0,0,0,"45,900","160,650","281,000","375,000",latest version,acc49
acc50,acc50,acc50,10002082046,GB,52.76698052,-0.895469856,LE13 0HL,0,0,0,0,1050,5000,0,GBP,AA1,1700000,0,0,0,0,AA1,0,0,0,0,0,0,0,0,5000,0,0,0,0,0,0,0,0,0,0,0,0,0,0,0,0,0,0,0,0,"45,900","160,650","281,000","375,000",latest version,acc50
acc50,acc50,acc50,10002082047,GB,52.76697956,-0.89536613,LE13 0HL,0,0,0,0,1050,5000,0,GBP,AA1,1700000,0,0,0,0,AA1,0,0,0,0,0,0,0,0,5000,0,0,0,0,0,0,0,0,0,0,0,0,0,0,0,0,0,0,0,0,"45,900","160,650","281,000","375,000",latest version,acc50
acc51,acc51,acc51,10002082046,GB,52.76698052,-0.895469856,LE13 0HL,0,0,0,0,1050,5000,0,GBP,AA1,1700000,0,0,0,0,AA1,0,0,0,0,0,0,0,0,5000,0,0,0,0,0,0,0,0,0,0,0,0,0,0,0,0,0,0,0,0,"43,966","153,879","263,793","373,707",latest version,acc51
acc51,acc51,acc51,10002082047,GB,52.76697956,-0.89536613,LE13 0HL,0,0,0,0,1050,5000,0,GBP,AA1,1700000,0,0,0,0,AA1,0,0,0,0,0,0,0,0,5000,0,0,0,0,0,0,0,0,0,0,0,0,0,0,0,0,0,0,0,0,"43,966","153,879","263,793","373,707",latest version,acc51
acc52,acc52,acc52,10002082046,GB,52.76698052,-0.895469856,LE13 0HL,0,0,0,0,1050,5000,0,GBP,AA1,1700000,0,0,0,0,AA1,0,0,0,0,0,0,0,0,5000,0,0,0,0,0,0,0,0,0,0,0,0,0,0,0,0,0,0,0,0,"45,900","160,650","281,000","408,500",latest version,acc52
acc52,acc52,acc52,10002082047,GB,52.76697956,-0.89536613,LE13 0HL,0,0,0,0,1050,5000,0,GBP,AA1,1700000,0,0,0,0,AA1,0,0,0,0,0,0,0,0,5000,0,0,0,0,0,0,0,0,0,0,0,0,0,0,0,0,0,0,0,0,"45,900","160,650","281,000","408,500",latest version,acc52
acc53,acc53,acc53,10002082046,GB,52.76698052,-0.895469856,LE13 0HL,0,0,0,0,1050,5000,0,GBP,AA1,1700000,0,0,0,0,AA1,0,0,0,0,0,0,0,0,5000,0,0,0,0,0,0,0,0,0,0,0,0,0,0,0,0,0,0,0,0,"34,000","161,500","289,000","375,000",latest version,acc53
acc53,acc53,acc53,10002082047,GB,52.76697956,-0.89536613,LE13 0HL,0,0,0,0,1050,5000,0,GBP,AA1,1700000,0,0,0,0,AA1,0,0,0,0,0,0,0,0,5000,0,0,0,0,0,0,0,0,0,0,0,0,0,0,0,0,0,0,0,0,"34,000","161,500","289,000","375,000",latest version,acc53
acc54,acc54,acc54,10002082046,GB,52.76698052,-0.895469856,LE13 0HL,0,0,0,0,1050,5000,0,GBP,AA1,1700000,0,0,0,0,AA1,0,0,0,0,0,0,0,0,5000,0,0,0,0,0,0,0,0,0,0,0,0,0,0,0,0,0,0,0,0,"34,000","161,500","289,000","375,000",latest version,acc54
acc54,acc54,acc54,10002082047,GB,52.76697956,-0.89536613,LE13 0HL,0,0,0,0,1050,5000,0,GBP,AA1,1700000,0,0,0,0,AA1,0,0,0,0,0,0,0,0,5000,0,0,0,0,0,0,0,0,0,0,0,0,0,0,0,0,0,0,0,0,"34,000","161,500","289,000","375,000",latest version,acc54
acc55,acc55,acc55,10002082046,GB,52.76698052,-0.895469856,LE13 0HL,0,0,0,0,1050,5000,0,GBP,AA1,1700000,0,0,0,0,AA1,0,0,0,0,0,0,0,0,5000,0,0,0,0,0,0,0,0,0,0,0,0,0,0,0,0,0,0,0,0,"34,000","153,879","263,793","373,707",latest version,acc55
acc55,acc55,acc55,10002082047,GB,52.76697956,-0.89536613,LE13 0HL,0,0,0,0,1050,5000,0,GBP,AA1,1700000,0,0,0,0,AA1,0,0,0,0,0,0,0,0,5000,0,0,0,0,0,0,0,0,0,0,0,0,0,0,0,0,0,0,0,0,"34,000","153,879","263,793","373,707",latest version,acc55
acc56,acc56,acc56,10002082046,GB,52.76698052,-0.895469856,LE13 0HL,0,0,0,0,1050,5000,0,GBP,AA1,1700000,0,0,0,0,AA1,0,0,0,0,0,0,0,0,5000,0,0,0,0,0,0,0,0,0,0,0,0,0,0,0,0,0,0,0,0,"34,000","161,500","289,000","416,500",latest version,acc56
acc56,acc56,acc56,10002082047,GB,52.76697956,-0.89536613,LE13 0HL,0,0,0,0,1050,5000,0,GBP,AA1,1700000,0,0,0,0,AA1,0,0,0,0,0,0,0,0,5000,0,0,0,0,0,0,0,0,0,0,0,0,0,0,0,0,0,0,0,0,"34,000","161,500","289,000","416,500",latest version,acc56
acc57,acc57,acc57,10002082046,GB,52.76698052,-0.895469856,LE13 0HL,0,0,0,0,1050,5000,0,GBP,AA1,1700000,0,0,0,0,AA1,0,0,0,0,0,0,0,0,5000,0,0,0,0,0,0,0,0,0,0,0,0,0,0,0,0,0,0,0,0,"46,000","173,500","301,000","375,000",latest version,acc57
acc57,acc57,acc57,10002082047,GB,52.76697956,-0.89536613,LE13 0HL,0,0,0,0,1050,5000,0,GBP,AA1,1700000,0,0,0,0,AA1,0,0,0,0,0,0,0,0,5000,0,0,0,0,0,0,0,0,0,0,0,0,0,0,0,0,0,0,0,0,"46,000","173,500","301,000","375,000",latest version,acc57
acc58,acc58,acc58,10002082046,GB,52.76698052,-0.895469856,LE13 0HL,0,0,0,0,1050,5000,0,GBP,AA1,1700000,0,0,0,0,AA1,0,0,0,0,0,0,0,0,5000,0,0,0,0,0,0,0,0,0,0,0,0,0,0,0,0,0,0,0,0,"46,000","173,500","301,000","375,000",latest version,acc58
acc58,acc58,acc58,10002082047,GB,52.76697956,-0.89536613,LE13 0HL,0,0,0,0,1050,5000,0,GBP,AA1,1700000,0,0,0,0,AA1,0,0,0,0,0,0,0,0,5000,0,0,0,0,0,0,0,0,0,0,0,0,0,0,0,0,0,0,0,0,"46,000","173,500","301,000","375,000",latest version,acc58
acc59,acc59,acc59,10002082046,GB,52.76698052,-0.895469856,LE13 0HL,0,0,0,0,1050,5000,0,GBP,AA1,1700000,0,0,0,0,AA1,0,0,0,0,0,0,0,0,5000,0,0,0,0,0,0,0,0,0,0,0,0,0,0,0,0,0,0,0,0,"43,966","153,879","263,793","373,707",latest version,acc59
acc59,acc59,acc59,10002082047,GB,52.76697956,-0.89536613,LE13 0HL,0,0,0,0,1050,5000,0,GBP,AA1,1700000,0,0,0,0,AA1,0,0,0,0,0,0,0,0,5000,0,0,0,0,0,0,0,0,0,0,0,0,0,0,0,0,0,0,0,0,"43,966","153,879","263,793","373,707",latest version,acc59
acc60,acc60,acc60,10002082046,GB,52.76698052,-0.895469856,LE13 0HL,0,0,0,0,1050,5000,0,GBP,AA1,1700000,0,0,0,0,AA1,0,0,0,0,0,0,0,0,5000,0,0,0,0,0,0,0,0,0,0,0,0,0,0,0,0,0,0,0,0,"46,000","173,500","301,000","428,500",latest version,acc60
acc60,acc60,acc60,10002082047,GB,52.76697956,-0.89536613,LE13 0HL,0,0,0,0,1050,5000,0,GBP,AA1,1700000,0,0,0,0,AA1,0,0,0,0,0,0,0,0,5000,0,0,0,0,0,0,0,0,0,0,0,0,0,0,0,0,0,0,0,0,"46,000","173,500","301,000","428,500",latest version,acc60
acc61,acc61,acc61,10002082046,GB,52.76698052,-0.895469856,LE13 0HL,0,0,0,0,1050,5000,0,GBP,AA1,1700000,0,0,0,0,AA1,0,0,0,0,0,0,0,0,5000,0,0,0,0,0,0,0,0,0,0,0,0,0,0,0,0,0,0,0,0,"45,900","160,650","275,400","375,000",latest version,acc61
acc61,acc61,acc61,10002082047,GB,52.76697956,-0.89536613,LE13 0HL,0,0,0,0,1050,5000,0,GBP,AA1,1700000,0,0,0,0,AA1,0,0,0,0,0,0,0,0,5000,0,0,0,0,0,0,0,0,0,0,0,0,0,0,0,0,0,0,0,0,"45,900","160,650","275,400","375,000",latest version,acc61
acc62,acc62,acc62,10002082046,GB,52.76698052,-0.895469856,LE13 0HL,0,0,0,0,1050,5000,0,GBP,AA1,1700000,0,0,0,0,AA1,0,0,0,0,0,0,0,0,5000,0,0,0,0,0,0,0,0,0,0,0,0,0,0,0,0,0,0,0,0,"45,900","160,650","275,400","375,000",latest version,acc62
acc62,acc62,acc62,10002082047,GB,52.76697956,-0.89536613,LE13 0HL,0,0,0,0,1050,5000,0,GBP,AA1,1700000,0,0,0,0,AA1,0,0,0,0,0,0,0,0,5000,0,0,0,0,0,0,0,0,0,0,0,0,0,0,0,0,0,0,0,0,"45,900","160,650","275,400","375,000",latest version,acc62
acc63,acc63,acc63,10002082046,GB,52.76698052,-0.895469856,LE13 0HL,0,0,0,0,1050,5000,0,GBP,AA1,1700000,0,0,0,0,AA1,0,0,0,0,0,0,0,0,5000,0,0,0,0,0,0,0,0,0,0,0,0,0,0,0,0,0,0,0,0,"43,966","153,879","263,793","373,707",latest version,acc63
acc63,acc63,acc63,10002082047,GB,52.76697956,-0.89536613,LE13 0HL,0,0,0,0,1050,5000,0,GBP,AA1,1700000,0,0,0,0,AA1,0,0,0,0,0,0,0,0,5000,0,0,0,0,0,0,0,0,0,0,0,0,0,0,0,0,0,0,0,0,"43,966","153,879","263,793","373,707",latest version,acc63
acc64,acc64,acc64,10002082046,GB,52.76698052,-0.895469856,LE13 0HL,0,0,0,0,1050,5000,0,GBP,AA1,1700000,0,0,0,0,AA1,0,0,0,0,0,0,0,0,5000,0,0,0,0,0,0,0,0,0,0,0,0,0,0,0,0,0,0,0,0,"45,900","160,650","275,400","390,150",latest version,acc64
acc64,acc64,acc64,10002082047,GB,52.76697956,-0.89536613,LE13 0HL,0,0,0,0,1050,5000,0,GBP,AA1,1700000,0,0,0,0,AA1,0,0,0,0,0,0,0,0,5000,0,0,0,0,0,0,0,0,0,0,0,0,0,0,0,0,0,0,0,0,"45,900","160,650","275,400","390,150",latest version,acc64
acc65,acc65,acc65,10002082046,GB,52.76698052,-0.895469856,LE13 0HL,0,0,0,0,1050,5000,0,GBP,AA1,1700000,0,0,0,0,AA1,0,0,0,0,0,0,0,0,5000,0,0,0,0,0,0,0,0,0,0,0,0,0,0,0,0,0,0,0,0,"34,000","161,500","289,000","375,000",latest version,acc65
acc65,acc65,acc65,10002082047,GB,52.76697956,-0.89536613,LE13 0HL,0,0,0,0,1050,5000,0,GBP,AA1,1700000,0,0,0,0,AA1,0,0,0,0,0,0,0,0,5000,0,0,0,0,0,0,0,0,0,0,0,0,0,0,0,0,0,0,0,0,"34,000","161,500","289,000","375,000",latest version,acc65
acc66,acc66,acc66,10002082046,GB,52.76698052,-0.895469856,LE13 0HL,0,0,0,0,1050,5000,0,GBP,AA1,1700000,0,0,0,0,AA1,0,0,0,0,0,0,0,0,5000,0,0,0,0,0,0,0,0,0,0,0,0,0,0,0,0,0,0,0,0,"34,000","161,500","289,000","375,000",latest version,acc66
acc66,acc66,acc66,10002082047,GB,52.76697956,-0.89536613,LE13 0HL,0,0,0,0,1050,5000,0,GBP,AA1,1700000,0,0,0,0,AA1,0,0,0,0,0,0,0,0,5000,0,0,0,0,0,0,0,0,0,0,0,0,0,0,0,0,0,0,0,0,"34,000","161,500","289,000","375,000",latest version,acc66
acc67,acc67,acc67,10002082046,GB,52.76698052,-0.895469856,LE13 0HL,0,0,0,0,1050,5000,0,GBP,AA1,1700000,0,0,0,0,AA1,0,0,0,0,0,0,0,0,5000,0,0,0,0,0,0,0,0,0,0,0,0,0,0,0,0,0,0,0,0,"34,000","153,879","263,793","373,707",latest version,acc67
acc67,acc67,acc67,10002082047,GB,52.76697956,-0.89536613,LE13 0HL,0,0,0,0,1050,5000,0,GBP,AA1,1700000,0,0,0,0,AA1,0,0,0,0,0,0,0,0,5000,0,0,0,0,0,0,0,0,0,0,0,0,0,0,0,0,0,0,0,0,"34,000","153,879","263,793","373,707",latest version,acc67
acc68,acc68,acc68,10002082046,GB,52.76698052,-0.895469856,LE13 0HL,0,0,0,0,1050,5000,0,GBP,AA1,1700000,0,0,0,0,AA1,0,0,0,0,0,0,0,0,5000,0,0,0,0,0,0,0,0,0,0,0,0,0,0,0,0,0,0,0,0,"34,000","161,500","289,000","416,500",latest version,acc68
acc68,acc68,acc68,10002082047,GB,52.76697956,-0.89536613,LE13 0HL,0,0,0,0,1050,5000,0,GBP,AA1,1700000,0,0,0,0,AA1,0,0,0,0,0,0,0,0,5000,0,0,0,0,0,0,0,0,0,0,0,0,0,0,0,0,0,0,0,0,"34,000","161,500","289,000","416,500",latest version,acc68
acc69,acc69,acc69,10002082046,GB,52.76698052,-0.895469856,LE13 0HL,0,0,0,0,1050,5000,0,GBP,AA1,1700000,0,0,0,0,AA1,0,0,0,0,0,0,0,0,5000,0,0,0,0,0,0,0,0,0,0,0,0,0,0,0,0,0,0,0,0,"46,000","173,500","301,000","375,000",latest version,acc69
acc69,acc69,acc69,10002082047,GB,52.76697956,-0.89536613,LE13 0HL,0,0,0,0,1050,5000,0,GBP,AA1,1700000,0,0,0,0,AA1,0,0,0,0,0,0,0,0,5000,0,0,0,0,0,0,0,0,0,0,0,0,0,0,0,0,0,0,0,0,"46,000","173,500","301,000","375,000",latest version,acc69
acc70,acc70,acc70,10002082046,GB,52.76698052,-0.895469856,LE13 0HL,0,0,0,0,1050,5000,0,GBP,AA1,1700000,0,0,0,0,AA1,0,0,0,0,0,0,0,0,5000,0,0,0,0,0,0,0,0,0,0,0,0,0,0,0,0,0,0,0,0,"46,000","173,500","301,000","375,000",latest version,acc70
acc70,acc70,acc70,10002082047,GB,52.76697956,-0.89536613,LE13 0HL,0,0,0,0,1050,5000,0,GBP,AA1,1700000,0,0,0,0,AA1,0,0,0,0,0,0,0,0,5000,0,0,0,0,0,0,0,0,0,0,0,0,0,0,0,0,0,0,0,0,"46,000","173,500","301,000","375,000",latest version,acc70
acc71,acc71,acc71,10002082046,GB,52.76698052,-0.895469856,LE13 0HL,0,0,0,0,1050,5000,0,GBP,AA1,1700000,0,0,0,0,AA1,0,0,0,0,0,0,0,0,5000,0,0,0,0,0,0,0,0,0,0,0,0,0,0,0,0,0,0,0,0,"43,966","153,879","263,793","373,707",latest version,acc71
acc71,acc71,acc71,10002082047,GB,52.76697956,-0.89536613,LE13 0HL,0,0,0,0,1050,5000,0,GBP,AA1,1700000,0,0,0,0,AA1,0,0,0,0,0,0,0,0,5000,0,0,0,0,0,0,0,0,0,0,0,0,0,0,0,0,0,0,0,0,"43,966","153,879","263,793","373,707",latest version,acc71
acc72,acc72,acc72,10002082046,GB,52.76698052,-0.895469856,LE13 0HL,0,0,0,0,1050,5000,0,GBP,AA1,1700000,0,0,0,0,AA1,0,0,0,0,0,0,0,0,5000,0,0,0,0,0,0,0,0,0,0,0,0,0,0,0,0,0,0,0,0,"46,000","173,500","301,000","428,500",latest version,acc72
acc72,acc72,acc72,10002082047,GB,52.76697956,-0.89536613,LE13 0HL,0,0,0,0,1050,5000,0,GBP,AA1,1700000,0,0,0,0,AA1,0,0,0,0,0,0,0,0,5000,0,0,0,0,0,0,0,0,0,0,0,0,0,0,0,0,0,0,0,0,"46,000","173,500","301,000","428,500",latest version,acc72
acc73,acc73,acc73,10002082046,GB,52.76698052,-0.895469856,LE13 0HL,0,0,0,0,1050,5000,0,GBP,AA1,1700000,0,0,0,0,AA1,0,0,0,0,0,0,0,0,5000,0,0,0,0,0,0,0,0,0,0,0,0,0,0,0,0,0,0,0,0,"45,900","160,650","281,000","375,000",latest version,acc73
acc73,acc73,acc73,10002082047,GB,52.76697956,-0.89536613,LE13 0HL,0,0,0,0,1050,5000,0,GBP,AA1,1700000,0,0,0,0,AA1,0,0,0,0,0,0,0,0,5000,0,0,0,0,0,0,0,0,0,0,0,0,0,0,0,0,0,0,0,0,"45,900","160,650","281,000","375,000",latest version,acc73
acc74,acc74,acc74,10002082046,GB,52.76698052,-0.895469856,LE13 0HL,0,0,0,0,1050,5000,0,GBP,AA1,1700000,0,0,0,0,AA1,0,0,0,0,0,0,0,0,5000,0,0,0,0,0,0,0,0,0,0,0,0,0,0,0,0,0,0,0,0,"45,900","160,650","281,000","375,000",latest version,acc74
acc74,acc74,acc74,10002082047,GB,52.76697956,-0.89536613,LE13 0HL,0,0,0,0,1050,5000,0,GBP,AA1,1700000,0,0,0,0,AA1,0,0,0,0,0,0,0,0,5000,0,0,0,0,0,0,0,0,0,0,0,0,0,0,0,0,0,0,0,0,"45,900","160,650","281,000","375,000",latest version,acc74
acc75,acc75,acc75,10002082046,GB,52.76698052,-0.895469856,LE13 0HL,0,0,0,0,1050,5000,0,GBP,AA1,1700000,0,0,0,0,AA1,0,0,0,0,0,0,0,0,5000,0,0,0,0,0,0,0,0,0,0,0,0,0,0,0,0,0,0,0,0,"43,966","153,879","263,793","373,707",latest version,acc75
acc75,acc75,acc75,10002082047,GB,52.76697956,-0.89536613,LE13 0HL,0,0,0,0,1050,5000,0,GBP,AA1,1700000,0,0,0,0,AA1,0,0,0,0,0,0,0,0,5000,0,0,0,0,0,0,0,0,0,0,0,0,0,0,0,0,0,0,0,0,"43,966","153,879","263,793","373,707",latest version,acc75
acc76,acc76,acc76,10002082046,GB,52.76698052,-0.895469856,LE13 0HL,0,0,0,0,1050,5000,0,GBP,AA1,1700000,0,0,0,0,AA1,0,0,0,0,0,0,0,0,5000,0,0,0,0,0,0,0,0,0,0,0,0,0,0,0,0,0,0,0,0,"45,900","160,650","281,000","408,500",latest version,acc76
acc76,acc76,acc76,10002082047,GB,52.76697956,-0.89536613,LE13 0HL,0,0,0,0,1050,5000,0,GBP,AA1,1700000,0,0,0,0,AA1,0,0,0,0,0,0,0,0,5000,0,0,0,0,0,0,0,0,0,0,0,0,0,0,0,0,0,0,0,0,"45,900","160,650","281,000","408,500",latest version,acc76
acc77,acc77,acc77,10002082046,GB,52.76698052,-0.895469856,LE13 0HL,0,0,0,0,1050,5000,0,GBP,AA1,1700000,0,0,0,0,AA1,0,0,0,0,0,0,0,0,5000,0,0,0,0,0,0,0,0,0,0,0,0,0,0,0,0,0,0,0,0,"34,000","161,500","289,000","375,000",latest version,acc77
acc77,acc77,acc77,10002082047,GB,52.76697956,-0.89536613,LE13 0HL,0,0,0,0,1050,5000,0,GBP,AA1,1700000,0,0,0,0,AA1,0,0,0,0,0,0,0,0,5000,0,0,0,0,0,0,0,0,0,0,0,0,0,0,0,0,0,0,0,0,"34,000","161,500","289,000","375,000",latest version,acc77
acc78,acc78,acc78,10002082046,GB,52.76698052,-0.895469856,LE13 0HL,0,0,0,0,1050,5000,0,GBP,AA1,1700000,0,0,0,0,AA1,0,0,0,0,0,0,0,0,5000,0,0,0,0,0,0,0,0,0,0,0,0,0,0,0,0,0,0,0,0,"34,000","161,500","289,000","375,000",latest version,acc78
acc78,acc78,acc78,10002082047,GB,52.76697956,-0.89536613,LE13 0HL,0,0,0,0,1050,5000,0,GBP,AA1,1700000,0,0,0,0,AA1,0,0,0,0,0,0,0,0,5000,0,0,0,0,0,0,0,0,0,0,0,0,0,0,0,0,0,0,0,0,"34,000","161,500","289,000","375,000",latest version,acc78
acc79,acc79,acc79,10002082046,GB,52.76698052,-0.895469856,LE13 0HL,0,0,0,0,1050,5000,0,GBP,AA1,1700000,0,0,0,0,AA1,0,0,0,0,0,0,0,0,5000,0,0,0,0,0,0,0,0,0,0,0,0,0,0,0,0,0,0,0,0,"34,000","153,879","263,793","373,707",latest version,acc79
acc79,acc79,acc79,10002082047,GB,52.76697956,-0.89536613,LE13 0HL,0,0,0,0,1050,5000,0,GBP,AA1,1700000,0,0,0,0,AA1,0,0,0,0,0,0,0,0,5000,0,0,0,0,0,0,0,0,0,0,0,0,0,0,0,0,0,0,0,0,"34,000","153,879","263,793","373,707",latest version,acc79
acc80,acc80,acc80,10002082046,GB,52.76698052,-0.895469856,LE13 0HL,0,0,0,0,1050,5000,0,GBP,AA1,1700000,0,0,0,0,AA1,0,0,0,0,0,0,0,0,5000,0,0,0,0,0,0,0,0,0,0,0,0,0,0,0,0,0,0,0,0,"34,000","161,500","289,000","416,500",latest version,acc80
acc80,acc80,acc80,10002082047,GB,52.76697956,-0.89536613,LE13 0HL,0,0,0,0,1050,5000,0,GBP,AA1,1700000,0,0,0,0,AA1,0,0,0,0,0,0,0,0,5000,0,0,0,0,0,0,0,0,0,0,0,0,0,0,0,0,0,0,0,0,"34,000","161,500","289,000","416,500",latest version,acc80
acc81,acc81,acc81,10002082046,GB,52.76698052,-0.895469856,LE13 0HL,0,0,0,0,1050,5000,0,GBP,AA1,1700000,0,0,0,0,AA1,0,0,0,0,0,0,0,0,5000,0,0,0,0,0,0,0,0,0,0,0,0,0,0,0,0,0,0,0,0,"46,000","173,500","301,000","375,000",latest version,acc81
acc81,acc81,acc81,10002082047,GB,52.76697956,-0.89536613,LE13 0HL,0,0,0,0,1050,5000,0,GBP,AA1,1700000,0,0,0,0,AA1,0,0,0,0,0,0,0,0,5000,0,0,0,0,0,0,0,0,0,0,0,0,0,0,0,0,0,0,0,0,"46,000","173,500","301,000","375,000",latest version,acc81
acc82,acc82,acc82,10002082046,GB,52.76698052,-0.895469856,LE13 0HL,0,0,0,0,1050,5000,0,GBP,AA1,1700000,0,0,0,0,AA1,0,0,0,0,0,0,0,0,5000,0,0,0,0,0,0,0,0,0,0,0,0,0,0,0,0,0,0,0,0,"46,000","173,500","301,000","375,000",latest version,acc82
acc82,acc82,acc82,10002082047,GB,52.76697956,-0.89536613,LE13 0HL,0,0,0,0,1050,5000,0,GBP,AA1,1700000,0,0,0,0,AA1,0,0,0,0,0,0,0,0,5000,0,0,0,0,0,0,0,0,0,0,0,0,0,0,0,0,0,0,0,0,"46,000","173,500","301,000","375,000",latest version,acc82
acc83,acc83,acc83,10002082046,GB,52.76698052,-0.895469856,LE13 0HL,0,0,0,0,1050,5000,0,GBP,AA1,1700000,0,0,0,0,AA1,0,0,0,0,0,0,0,0,5000,0,0,0,0,0,0,0,0,0,0,0,0,0,0,0,0,0,0,0,0,"43,966","153,879","263,793","373,707",latest version,acc83
acc83,acc83,acc83,10002082047,GB,52.76697956,-0.89536613,LE13 0HL,0,0,0,0,1050,5000,0,GBP,AA1,1700000,0,0,0,0,AA1,0,0,0,0,0,0,0,0,5000,0,0,0,0,0,0,0,0,0,0,0,0,0,0,0,0,0,0,0,0,"43,966","153,879","263,793","373,707",latest version,acc83
acc84,acc84,acc84,10002082046,GB,52.76698052,-0.895469856,LE13 0HL,0,0,0,0,1050,5000,0,GBP,AA1,1700000,0,0,0,0,AA1,0,0,0,0,0,0,0,0,5000,0,0,0,0,0,0,0,0,0,0,0,0,0,0,0,0,0,0,0,0,"46,000","173,500","301,000","428,500",latest version,acc84
acc84,acc84,acc84,10002082047,GB,52.76697956,-0.89536613,LE13 0HL,0,0,0,0,1050,5000,0,GBP,AA1,1700000,0,0,0,0,AA1,0,0,0,0,0,0,0,0,5000,0,0,0,0,0,0,0,0,0,0,0,0,0,0,0,0,0,0,0,0,"46,000","173,500","301,000","428,500",latest version,acc84
acc85,acc85,acc85,10002082046,GB,52.76698052,-0.895469856,LE13 0HL,0,0,0,0,1050,5000,0,GBP,AA1,1700000,0,0,0,0,AA1,0,0,0,0,0,0,0,0,5000,0,0,0,0,0,0,0,0,0,0,0,0,0,0,0,0,0,0,0,0,"45,900","160,650","275,400","375,000",latest version,acc85
acc85,acc85,acc85,10002082047,GB,52.76697956,-0.89536613,LE13 0HL,0,0,0,0,1050,5000,0,GBP,AA1,1700000,0,0,0,0,AA1,0,0,0,0,0,0,0,0,5000,0,0,0,0,0,0,0,0,0,0,0,0,0,0,0,0,0,0,0,0,"45,900","160,650","275,400","375,000",latest version,acc85
acc86,acc86,acc86,10002082046,GB,52.76698052,-0.895469856,LE13 0HL,0,0,0,0,1050,5000,0,GBP,AA1,1700000,0,0,0,0,AA1,0,0,0,0,0,0,0,0,5000,0,0,0,0,0,0,0,0,0,0,0,0,0,0,0,0,0,0,0,0,"45,900","160,650","275,400","375,000",latest version,acc86
acc86,acc86,acc86,10002082047,GB,52.76697956,-0.89536613,LE13 0HL,0,0,0,0,1050,5000,0,GBP,AA1,1700000,0,0,0,0,AA1,0,0,0,0,0,0,0,0,5000,0,0,0,0,0,0,0,0,0,0,0,0,0,0,0,0,0,0,0,0,"45,900","160,650","275,400","375,000",latest version,acc86
acc87,acc87,acc87,10002082046,GB,52.76698052,-0.895469856,LE13 0HL,0,0,0,0,1050,5000,0,GBP,AA1,1700000,0,0,0,0,AA1,0,0,0,0,0,0,0,0,5000,0,0,0,0,0,0,0,0,0,0,0,0,0,0,0,0,0,0,0,0,"43,966","153,879","263,793","373,707",latest version,acc87
acc87,acc87,acc87,10002082047,GB,52.76697956,-0.89536613,LE13 0HL,0,0,0,0,1050,5000,0,GBP,AA1,1700000,0,0,0,0,AA1,0,0,0,0,0,0,0,0,5000,0,0,0,0,0,0,0,0,0,0,0,0,0,0,0,0,0,0,0,0,"43,966","153,879","263,793","373,707",latest version,acc87
acc88,acc88,acc88,10002082046,GB,52.76698052,-0.895469856,LE13 0HL,0,0,0,0,1050,5000,0,GBP,AA1,1700000,0,0,0,0,AA1,0,0,0,0,0,0,0,0,5000,0,0,0,0,0,0,0,0,0,0,0,0,0,0,0,0,0,0,0,0,"45,900","160,650","275,400","390,150",latest version,acc88
acc88,acc88,acc88,10002082047,GB,52.76697956,-0.89536613,LE13 0HL,0,0,0,0,1050,5000,0,GBP,AA1,1700000,0,0,0,0,AA1,0,0,0,0,0,0,0,0,5000,0,0,0,0,0,0,0,0,0,0,0,0,0,0,0,0,0,0,0,0,"45,900","160,650","275,400","390,150",latest version,acc88
acc89,acc89,acc89,10002082046,GB,52.76698052,-0.895469856,LE13 0HL,0,0,0,0,1050,5000,0,GBP,AA1,1700000,0,0,0,0,AA1,0,0,0,0,0,0,0,0,5000,0,0,0,0,0,0,0,0,0,0,0,0,0,0,0,0,0,0,0,0,"34,000","161,500","289,000","375,000",latest version,acc89
acc89,acc89,acc89,10002082047,GB,52.76697956,-0.89536613,LE13 0HL,0,0,0,0,1050,5000,0,GBP,AA1,1700000,0,0,0,0,AA1,0,0,0,0,0,0,0,0,5000,0,0,0,0,0,0,0,0,0,0,0,0,0,0,0,0,0,0,0,0,"34,000","161,500","289,000","375,000",latest version,acc89
acc90,acc90,acc90,10002082046,GB,52.76698052,-0.895469856,LE13 0HL,0,0,0,0,1050,5000,0,GBP,AA1,1700000,0,0,0,0,AA1,0,0,0,0,0,0,0,0,5000,0,0,0,0,0,0,0,0,0,0,0,0,0,0,0,0,0,0,0,0,"34,000","161,500","289,000","375,000",latest version,acc90
acc90,acc90,acc90,10002082047,GB,52.76697956,-0.89536613,LE13 0HL,0,0,0,0,1050,5000,0,GBP,AA1,1700000,0,0,0,0,AA1,0,0,0,0,0,0,0,0,5000,0,0,0,0,0,0,0,0,0,0,0,0,0,0,0,0,0,0,0,0,"34,000","161,500","289,000","375,000",latest version,acc90
acc91,acc91,acc91,10002082046,GB,52.76698052,-0.895469856,LE13 0HL,0,0,0,0,1050,5000,0,GBP,AA1,1700000,0,0,0,0,AA1,0,0,0,0,0,0,0,0,5000,0,0,0,0,0,0,0,0,0,0,0,0,0,0,0,0,0,0,0,0,"34,000","153,879","263,793","373,707",latest version,acc91
acc91,acc91,acc91,10002082047,GB,52.76697956,-0.89536613,LE13 0HL,0,0,0,0,1050,5000,0,GBP,AA1,1700000,0,0,0,0,AA1,0,0,0,0,0,0,0,0,5000,0,0,0,0,0,0,0,0,0,0,0,0,0,0,0,0,0,0,0,0,"34,000","153,879","263,793","373,707",latest version,acc91
acc92,acc92,acc92,10002082046,GB,52.76698052,-0.895469856,LE13 0HL,0,0,0,0,1050,5000,0,GBP,AA1,1700000,0,0,0,0,AA1,0,0,0,0,0,0,0,0,5000,0,0,0,0,0,0,0,0,0,0,0,0,0,0,0,0,0,0,0,0,"34,000","161,500","289,000","416,500",latest version,acc92
acc92,acc92,acc92,10002082047,GB,52.76697956,-0.89536613,LE13 0HL,0,0,0,0,1050,5000,0,GBP,AA1,1700000,0,0,0,0,AA1,0,0,0,0,0,0,0,0,5000,0,0,0,0,0,0,0,0,0,0,0,0,0,0,0,0,0,0,0,0,"34,000","161,500","289,000","416,500",latest version,acc92
acc93,acc93,acc93,10002082046,GB,52.76698052,-0.895469856,LE13 0HL,0,0,0,0,1050,5000,0,GBP,AA1,1700000,0,0,0,0,AA1,0,0,0,0,0,0,0,0,5000,0,0,0,0,0,0,0,0,0,0,0,0,0,0,0,0,0,0,0,0,"46,000","173,500","301,000","375,000",latest version,acc93
acc93,acc93,acc93,10002082047,GB,52.76697956,-0.89536613,LE13 0HL,0,0,0,0,1050,5000,0,GBP,AA1,1700000,0,0,0,0,AA1,0,0,0,0,0,0,0,0,5000,0,0,0,0,0,0,0,0,0,0,0,0,0,0,0,0,0,0,0,0,"46,000","173,500","301,000","375,000",latest version,acc93
acc94,acc94,acc94,10002082046,GB,52.76698052,-0.895469856,LE13 0HL,0,0,0,0,1050,5000,0,GBP,AA1,1700000,0,0,0,0,AA1,0,0,0,0,0,0,0,0,5000,0,0,0,0,0,0,0,0,0,0,0,0,0,0,0,0,0,0,0,0,"46,000","173,500","301,000","375,000",latest version,acc94
acc94,acc94,acc94,10002082047,GB,52.76697956,-0.89536613,LE13 0HL,0,0,0,0,1050,5000,0,GBP,AA1,1700000,0,0,0,0,AA1,0,0,0,0,0,0,0,0,5000,0,0,0,0,0,0,0,0,0,0,0,0,0,0,0,0,0,0,0,0,"46,000","173,500","301,000","375,000",latest version,acc94
acc95,acc95,acc95,10002082046,GB,52.76698052,-0.895469856,LE13 0HL,0,0,0,0,1050,5000,0,GBP,AA1,1700000,0,0,0,0,AA1,0,0,0,0,0,0,0,0,5000,0,0,0,0,0,0,0,0,0,0,0,0,0,0,0,0,0,0,0,0,"43,966","153,879","263,793","373,707",latest version,acc95
acc95,acc95,acc95,10002082047,GB,52.76697956,-0.89536613,LE13 0HL,0,0,0,0,1050,5000,0,GBP,AA1,1700000,0,0,0,0,AA1,0,0,0,0,0,0,0,0,5000,0,0,0,0,0,0,0,0,0,0,0,0,0,0,0,0,0,0,0,0,"43,966","153,879","263,793","373,707",latest version,acc95
acc96,acc96,acc96,10002082046,GB,52.76698052,-0.895469856,LE13 0HL,0,0,0,0,1050,5000,0,GBP,AA1,1700000,0,0,0,0,AA1,0,0,0,0,0,0,0,0,5000,0,0,0,0,0,0,0,0,0,0,0,0,0,0,0,0,0,0,0,0,"46,000","173,500","301,000","428,500",latest version,acc96
acc96,acc96,acc96,10002082047,GB,52.76697956,-0.89536613,LE13 0HL,0,0,0,0,1050,5000,0,GBP,AA1,1700000,0,0,0,0,AA1,0,0,0,0,0,0,0,0,5000,0,0,0,0,0,0,0,0,0,0,0,0,0,0,0,0,0,0,0,0,"46,000","173,500","301,000","428,500",latest version,acc96
acc97,acc97,acc97,10002082046,GB,52.76698052,-0.895469856,LE13 0HL,0,0,0,0,1050,5000,0,GBP,AA1,1700000,0,0,0,0,AA1,0,0,0,0,0,0,0,0,0,0,0,0,0,0,0,0,0,0,0,0,0,0,0,0,0,0,0,0,0,21250,81000,138750,187500,latest version,acc97
acc97,acc97,acc97,10002082047,GB,52.76697956,-0.89536613,LE13 0HL,0,0,0,0,1050,5000,0,GBP,AA1,1700000,0,0,0,0,AA1,0,0,0,0,0,0,0,0,0,0,0,0,0,0,0,0,0,0,0,0,0,0,0,0,0,0,0,0,0,21250,81000,138750,187500,latest version,acc97
acc98,acc98,acc98,10002082046,GB,52.76698052,-0.895469856,LE13 0HL,0,0,0,0,1050,5000,0,GBP,AA1,1700000,0,0,0,0,AA1,0,0,0,0,0,0,0,0,0,0,0,0,0,0,0,0,0,0,0,0,0,0,0,0,0,0,0,0,0,21250,81000,138750,202500,latest version,acc98
acc98,acc98,acc98,10002082047,GB,52.76697956,-0.89536613,LE13 0HL,0,0,0,0,1050,5000,0,GBP,AA1,1700000,0,0,0,0,AA1,0,0,0,0,0,0,0,0,0,0,0,0,0,0,0,0,0,0,0,0,0,0,0,0,0,0,0,0,0,21250,81000,138750,202500,latest version,acc98
acc99,acc99,acc99,10002082046,GB,52.76698052,-0.895469856,LE13 0HL,0,0,0,0,1050,5000,0,GBP,AA1,1700000,0,0,0,0,AA1,0,0,0,0,0,0,0,0,5000,0,0,0,0,0,0,0,0,0,0,0,0,0,0,0,0,0,0,0,0,"22,950","80,325","140,500","187,500",latest version,acc99
acc99,acc99,acc99,10002082047,GB,52.76697956,-0.89536613,LE13 0HL,0,0,0,0,1050,5000,0,GBP,AA1,1700000,0,0,0,0,AA1,0,0,0,0,0,0,0,0,5000,0,0,0,0,0,0,0,0,0,0,0,0,0,0,0,0,0,0,0,0,"22,950","80,325","140,500","187,500",latest version,acc99
acc100,acc100,acc100,10002082046,GB,52.76698052,-0.895469856,LE13 0HL,0,0,0,0,1050,5000,0,GBP,AA1,1700000,0,0,0,0,AA1,0,0,0,0,0,0,0,0,5000,0,0,0,0,0,0,0,0,0,0,0,0,0,0,0,0,0,0,0,0,"22,950","80,325","140,500","204,250",latest version,acc100
acc100,acc100,acc100,10002082047,GB,52.76697956,-0.89536613,LE13 0HL,0,0,0,0,1050,5000,0,GBP,AA1,1700000,0,0,0,0,AA1,0,0,0,0,0,0,0,0,5000,0,0,0,0,0,0,0,0,0,0,0,0,0,0,0,0,0,0,0,0,"22,950","80,325","140,500","204,250",latest version,acc100
acc101,acc101,acc101,10002082046,GB,52.76698052,-0.895469856,LE13 0HL,0,0,0,0,1050,5000,0,GBP,AA1,1700000,0,0,0,0,AA1,0,0,0,0,0,0,0,0,0,0,0,0,0,0,0,0,0,0,0,0,0,0,0,0,0,0,0,0,0,26250,90000,153750,217500,latest version,acc101
acc101,acc101,acc101,10002082047,GB,52.76697956,-0.89536613,LE13 0HL,0,0,0,0,1050,5000,0,GBP,AA1,1700000,0,0,0,0,AA1,0,0,0,0,0,0,0,0,0,0,0,0,0,0,0,0,0,0,0,0,0,0,0,0,0,0,0,0,0,26250,90000,153750,217500,latest version,acc101
acc102,acc102,acc102,10002082046,GB,52.76698052,-0.895469856,LE13 0HL,0,0,0,0,1050,5000,0,GBP,AA1,1700000,0,0,0,0,AA1,0,0,0,0,0,0,0,0,0,0,0,0,0,0,0,0,0,0,0,0,0,0,0,0,0,0,0,0,0,212500,425000,637500,850000,latest version,acc102
acc102,acc102,acc102,10002082047,GB,52.76697956,-0.89536613,LE13 0HL,0,0,0,0,1050,5000,0,GBP,AA1,1700000,0,0,0,0,AA1,0,0,0,0,0,0,0,0,0,0,0,0,0,0,0,0,0,0,0,0,0,0,0,0,0,0,0,0,0,212500,425000,637500,850000,latest version,acc102
acc103,acc103,acc103,10002082046,GB,52.76698052,-0.895469856,LE13 0HL,0,0,0,0,1050,5000,0,GBP,AA1,1700000,0,0,0,0,AA1,0,0,0,0,0,0,0,0,5000,0,0,0,0,0,0,0,0,0,0,0,0,0,0,0,0,0,0,0,0,25500,89250,153000,216750,latest version,acc103
acc103,acc103,acc103,10002082047,GB,52.76697956,-0.89536613,LE13 0HL,0,0,0,0,1050,5000,0,GBP,AA1,1700000,0,0,0,0,AA1,0,0,0,0,0,0,0,0,5000,0,0,0,0,0,0,0,0,0,0,0,0,0,0,0,0,0,0,0,0,25500,89250,153000,216750,latest version,acc103
acc104,acc104,acc104,10002082046,GB,52.76698052,-0.895469856,LE13 0HL,0,0,0,0,1050,5000,0,GBP,AA1,1700000,0,0,0,0,AA1,0,0,0,0,0,0,0,0,5000,0,0,0,0,0,0,0,0,0,0,0,0,0,0,0,0,0,0,0,0,210000,422500,635000,847500,latest version,acc104
acc104,acc104,acc104,10002082047,GB,52.76697956,-0.89536613,LE13 0HL,0,0,0,0,1050,5000,0,GBP,AA1,1700000,0,0,0,0,AA1,0,0,0,0,0,0,0,0,5000,0,0,0,0,0,0,0,0,0,0,0,0,0,0,0,0,0,0,0,0,210000,422500,635000,847500,latest version,acc104
