PortNumber,AccNumber,LocNumber,CountryCode,Latitude,Longitude,PostalCode,AreaCode,AreaName,GeogScheme1,GeogName1,GeogScheme2,GeogName2,GeogScheme3,GeogName3,GeogScheme4,GeogName4,GeogScheme5,GeogName5,OccupancyCode,ConstructionCode,YearBuilt,NumberOfStoreys,NumberOfBuildings,LocCurrency,LocPerilsCovered,BuildingTIV,OtherTIV,ContentsTIV,BITIV,CondNumber,LocPeril,LocDed1Building,LocDed2Other,LocDed3Contents,LocDed4BI,LocDed5PD,LocDed6All,LocLimit1Building,LocLimit2Other,LocLimit3Contents,LocLimit4BI,LocLimit5PD,LocLimit6All,Basement,FlexiLocSBUValve,LocGroup,ReinsTag
OEDTest,QS05_01,QS05_01_1,CA,43.14131,-80.29086,N3T4J2,ON,,,,,,,,,,,,1100,5000,,,1,CAD,OO1,75000000,0,12000000,13000000,,OO1,0,0,0,0,0,1000000,0,0,0,0,0,0,0,0,,
OEDTest,QS05_02,QS05_02_1,CA,43.35919,-80.31656,N1S1H4,ON,,,,,,,,,,,,1100,5000,,,1,CAD,OO1,75000000,0,12000000,13000000,,OO1,0,0,0,0,0,1000000,0,0,0,0,0,0,0,0,1,
OEDTest,QS05_02,QS05_02_2,CA,43.14131,-80.29086,N3T4J2,ON,,,,,,,,,,,,1100,5000,,,1,CAD,OO1,75000000,0,12000000,13000000,,OO1,0,0,0,0,0,1000000,0,0,0,0,0,0,0,0,,
OEDTest,QS05_03,QS05_03_1,CA,43.35919,-80.31656,N1S1H4,ON,,,,,,,,,,,,1100,5000,,,1,CAD,OO1,75000000,0,12000000,13000000,,OO1,0,0,0,0,0,1000000,0,0,0,0,0,0,0,0,,
OEDTest,QS05_03,QS05_03_2,CA,43.14131,-80.29086,N3T4J2,ON,,,,,,,,,,,,1100,5000,,,1,CAD,OO1,75000000,0,12000000,13000000,,OO1,0,0,0,0,0,1000000,0,0,0,0,0,0,0,0,,
OEDTest,QS05_03,QS05_03_3,CA,43.35919,-80.31656,N1S1H4,ON,,,,,,,,,,,,1100,5000,,,1,CAD,OO1,75000000,0,12000000,13000000,,OO1,0,0,0,0,0,1000000,0,0,0,0,0,0,0,0,,
OEDTest,QS05_07,QS05_07_1,CA,49.24168,-121.82152,V0M1A3,BC,,,,,,,,,,,,1100,5000,,,1,CAD,OO1,75000000,0,12000000,13000000,,OO1,0,0,0,0,0,1000000,0,0,0,0,0,0,0,0,,
OEDTest,QS05_07,QS05_07_2,CA,53.03489,-108.45675,S0M2G0,SK,,,,,,,,,,,,1100,5000,,,1,CAD,OO1,75000000,0,12000000,13000000,,OO1,0,0,0,0,0,1000000,0,0,0,0,0,0,0,0,,
OEDTest,QS05_07,QS05_07_3,CA,43.14131,-80.29086,N3T4J2,ON,,,,,,,,,,,,1100,5000,,,1,CAD,OO1,75000000,0,12000000,13000000,,OO1,0,0,0,0,0,1000000,0,0,0,0,0,0,0,0,,
OEDTest,QS05_07,QS05_07_4,CA,43.35919,-80.31656,N1S1H4,ON,,,,,,,,,,,,1100,5000,,,1,CAD,OO1,75000000,0,12000000,13000000,,OO1,0,0,0,0,0,1000000,0,0,0,0,0,0,0,0,,
OEDTest,QS05_05,QS05_05_1,CA,43.14131,-80.29086,N3T4J2,ON,,,,,,,,,,,,1100,5000,,,1,CAD,OO1,75000000,0,12000000,13000000,,OO1,0,0,0,0,0,1000000,0,0,0,0,0,0,0,0,,
OEDTest,QS05_05,QS05_05_2,CA,43.35919,-80.31656,N1S1H4,ON,,,,,,,,,,,,1100,5000,,,1,CAD,OO1,75000000,0,12000000,13000000,,OO1,0,0,0,0,0,1000000,0,0,0,0,0,0,0,0,,
OEDTest,QS05_06,QS05_06_1,CA,43.14131,-80.29086,N3T4J2,ON,,,,,,,,,,,,1100,5000,,,1,CAD,OO1,75000000,0,12000000,13000000,,OO1,0,0,0,0,0,1000000,0,0,0,0,0,0,0,0,,
OEDTest,QS05_06,QS05_06_2,CA,43.35919,-80.31656,N1S1H4,ON,,,,,,,,,,,,1100,5000,,,1,CAD,OO1,75000000,0,12000000,13000000,,OO1,0,0,0,0,0,1000000,0,0,0,0,0,0,0,0,,
OEDTest,QS05_08,QS05_08_1,CA,43.14131,-80.29086,N3T4J2,ON,,,,,,,,,,,,1100,5000,,,1,CAD,OO1,75000000,0,12000000,13000000,,OO1,0,0,0,0,0,1000000,0,0,0,0,0,0,0,0,,
OEDTest,QS05_08,QS05_08_2,CA,43.35919,-80.31656,N1S1H4,ON,,,,,,,,,,,,1100,5000,,,1,CAD,OO1,75000000,0,12000000,13000000,,OO1,0,0,0,0,0,1000000,0,0,0,0,0,0,0,0,,
OEDTest,QS05_08,QS05_08_3,CA,49.24168,-121.82152,V0M1A3,BC,,,,,,,,,,,,1100,5000,,,1,CAD,OO1,75000000,0,12000000,13000000,,OO1,0,0,0,0,0,1000000,0,0,0,0,0,0,0,0,,
OEDTest,QS05_08,QS05_08_4,CA,53.03489,-108.45675,S0M2G0,SK,,,,,,,,,,,,1100,5000,,,1,CAD,OO1,75000000,0,12000000,13000000,,OO1,0,0,0,0,0,1000000,0,0,0,0,0,0,0,0,,
OEDTest,QS05_09,QS05_09_1,CA,43.14131,-80.29086,N3T4J2,ON,,,,,,,,,,,,1100,5000,,,1,CAD,OO1,75000000,0,12000000,13000000,,OO1,0,0,0,0,0,1000000,0,0,0,0,0,0,0,0,1,
OEDTest,QS05_09,QS05_09_2,CA,43.35919,-80.31656,N1S1H4,ON,,,,,,,,,,,,1100,5000,,,1,CAD,OO1,75000000,0,12000000,13000000,,OO1,0,0,0,0,0,1000000,0,0,0,0,0,0,0,0,,
OEDTest,QS06_01,QS06_01_1,CA,43.14131,-80.29086,N3T4J2,ON,,,,,,,,,,,,1100,5000,,,1,CAD,OO1,75000000,0,12000000,13000000,,OO1,0,0,0,0,0,1000000,0,0,0,0,0,0,0,0,,
OEDTest,QS06_02,QS06_02_1,CA,43.35919,-80.31656,N1S1H4,ON,,,,,,,,,,,,1100,5000,,,1,CAD,OO1,75000000,0,12000000,13000000,,OO1,0,0,0,0,0,1000000,0,0,0,0,0,0,0,0,1,
OEDTest,QS06_02,QS06_02_2,CA,43.14131,-80.29086,N3T4J2,ON,,,,,,,,,,,,1100,5000,,,1,CAD,OO1,75000000,0,12000000,13000000,,OO1,0,0,0,0,0,1000000,0,0,0,0,0,0,0,0,,
OEDTest,QS06_03,QS06_03_1,CA,43.35919,-80.31656,N1S1H4,ON,,,,,,,,,,,,1100,5000,,,1,CAD,OO1,75000000,0,12000000,13000000,,OO1,0,0,0,0,0,1000000,0,0,0,0,0,0,0,0,,
OEDTest,QS06_03,QS06_03_2,CA,43.14131,-80.29086,N3T4J2,ON,,,,,,,,,,,,1100,5000,,,1,CAD,OO1,75000000,0,12000000,13000000,,OO1,0,0,0,0,0,1000000,0,0,0,0,0,0,0,0,,
OEDTest,QS06_03,QS06_03_3,CA,43.35919,-80.31656,N1S1H4,ON,,,,,,,,,,,,1100,5000,,,1,CAD,OO1,75000000,0,12000000,13000000,,OO1,0,0,0,0,0,1000000,0,0,0,0,0,0,0,0,,
OEDTest,QS06_07,QS06_07_1,CA,49.24168,-121.82152,V0M1A3,BC,,,,,,,,,,,,1100,5000,,,1,CAD,OO1,75000000,0,12000000,13000000,,OO1,0,0,0,0,0,1000000,0,0,0,0,0,0,0,0,,
OEDTest,QS06_07,QS06_07_2,CA,53.03489,-108.45675,S0M2G0,SK,,,,,,,,,,,,1100,5000,,,1,CAD,OO1,75000000,0,12000000,13000000,,OO1,0,0,0,0,0,1000000,0,0,0,0,0,0,0,0,,
OEDTest,QS06_07,QS06_07_3,CA,43.14131,-80.29086,N3T4J2,ON,,,,,,,,,,,,1100,5000,,,1,CAD,OO1,75000000,0,12000000,13000000,,OO1,0,0,0,0,0,1000000,0,0,0,0,0,0,0,0,,
OEDTest,QS06_07,QS06_07_4,CA,43.35919,-80.31656,N1S1H4,ON,,,,,,,,,,,,1100,5000,,,1,CAD,OO1,75000000,0,12000000,13000000,,OO1,0,0,0,0,0,1000000,0,0,0,0,0,0,0,0,,
OEDTest,QS06_05,QS06_05_1,CA,43.14131,-80.29086,N3T4J2,ON,,,,,,,,,,,,1100,5000,,,1,CAD,OO1,75000000,0,12000000,13000000,,OO1,0,0,0,0,0,1000000,0,0,0,0,0,0,0,0,,
OEDTest,QS06_05,QS06_05_2,CA,43.35919,-80.31656,N1S1H4,ON,,,,,,,,,,,,1100,5000,,,1,CAD,OO1,75000000,0,12000000,13000000,,OO1,0,0,0,0,0,1000000,0,0,0,0,0,0,0,0,,
OEDTest,QS06_06,QS06_06_1,CA,43.14131,-80.29086,N3T4J2,ON,,,,,,,,,,,,1100,5000,,,1,CAD,OO1,75000000,0,12000000,13000000,,OO1,0,0,0,0,0,1000000,0,0,0,0,0,0,0,0,,
OEDTest,QS06_06,QS06_06_2,CA,43.35919,-80.31656,N1S1H4,ON,,,,,,,,,,,,1100,5000,,,1,CAD,OO1,75000000,0,12000000,13000000,,OO1,0,0,0,0,0,1000000,0,0,0,0,0,0,0,0,,
